NORAD_CAT_ID,OBJECT_NAME,OBJECT_TYPE,EPOCH,MEAN_MOTION,ECCENTRICITY,INCLINATION,RA_OF_ASC_NODE,ARG_OF_PERICENTER,MEAN_ANOMALY,BSTAR,MEAN_MOTION_DOT,MEAN_MOTION_DDOT,TLE_LINE0,TLE_LINE1,TLE_LINE2,SEMIMAJOR_AXIS,PERIOD,APOGEE,PERIGEE,DECAYED
51117.0,STARLINK-3391,PAYLOAD,2023-11-01 09:19:40,15.08840766,0.0001304,53.2161,186.5578,89.4915,270.6227,0.00013248,1.821e-05,0.0,0 STARLINK-3391,1 51117U 22005P   23305.38866703  .00001821  00000-0  13248-3 0  9991,2 51117  53.2161 186.5578 0001304  89.4915 270.6227 15.08840766 99154,6917.878,95.438,540.645,538.841,0.0
51117.0,STARLINK-3391,PAYLOAD,2023-11-01 20:27:22,15.08842827,0.0001229,53.2155,184.477,89.6372,270.4761,0.00016732,2.376e-05,0.0,0 STARLINK-3391,1 51117U 22005P   23305.85234668  .00002376  00000-0  16732-3 0  9999,2 51117  53.2155 184.4770 0001229  89.6372 270.4761 15.08842827100337,6917.872,95.437,540.587,538.887,0.0
51117.0,STARLINK-3391,PAYLOAD,2023-11-01 22:02:45,15.08845392,0.0001211,53.2152,184.1803,92.878,267.2351,0.00019019,2.741e-05,0.0,0 STARLINK-3391,1 51117U 22005P   23305.91858516  .00002741  00000-0  19019-3 0  9997,2 51117  53.2152 184.1803 0001211  92.8780 267.2351 15.08845392 99233,6917.864,95.437,540.567,538.891,0.0
51117.0,STARLINK-3391,PAYLOAD,2023-11-02 09:10:27,15.08841604,0.0001341,53.2158,182.1,86.365,273.7496,9.5763e-05,1.237e-05,0.0,0 STARLINK-3391,1 51117U 22005P   23306.38226625  .00001237  00000-0  95763-4 0  9999,2 51117  53.2158 182.1000 0001341  86.3650 273.7496 15.08841604 99306,6917.875,95.437,540.668,538.813,0.0
51117.0,STARLINK-3391,PAYLOAD,2023-11-02 20:18:10,15.08837741,0.0001087,53.217,180.0137,89.264,270.8476,8.8077e-05,1.114e-05,0.0,0 STARLINK-3391,1 51117U 22005P   23306.84594941  .00001114  00000-0  88077-4 0  9993,2 51117  53.2170 180.0137 0001087  89.2640 270.8476 15.08837741100481,6917.887,95.438,540.504,539.0,0.0
51117.0,STARLINK-3391,PAYLOAD,2023-11-02 21:53:32,15.0884387,0.0001119,53.2155,179.7182,90.5957,269.5163,5.9122e-05,6.53e-06,0.0,0 STARLINK-3391,1 51117U 22005P   23306.91218659  .00000653  00000-0  59122-4 0  9996,2 51117  53.2155 179.7182 0001119  90.5957 269.5163 15.08843870 99385,6917.869,95.437,540.508,538.959,0.0
51117.0,STARLINK-3391,PAYLOAD,2023-11-03 09:01:14,15.08847002,0.0001112,53.2153,177.6382,87.676,272.4359,0.00012919,1.769e-05,0.0,0 STARLINK-3391,1 51117U 22005P   23307.37586536  .00001769  00000-0  12919-3 0  9990,2 51117  53.2153 177.6382 0001112  87.6760 272.4359 15.08847002 99453,6917.859,95.437,540.493,538.955,0.0
51117.0,STARLINK-3391,PAYLOAD,2023-11-03 21:44:19,15.08844411,0.0001057,53.2153,175.2591,88.9777,271.1336,0.0001828,2.623e-05,0.0,0 STARLINK-3391,1 51117U 22005P   23307.90578661  .00002623  00000-0  18280-3 0  9996,2 51117  53.2153 175.2591 0001057  88.9777 271.1336 15.08844411100645,6917.867,95.437,540.463,539.001,0.0
51117.0,STARLINK-3391,PAYLOAD,2023-11-04 08:52:02,15.08841565,0.0001737,53.2164,173.1743,102.0282,258.0905,0.00010044,1.311e-05,0.0,0 STARLINK-3391,1 51117U 22005P   23308.36946829  .00001311  00000-0  10044-3 0  9995,2 51117  53.2164 173.1743 0001737 102.0282 258.0905 15.08841565 99603,6917.876,95.437,540.942,538.539,0.0
51117.0,STARLINK-3391,PAYLOAD,2023-11-04 19:59:44,15.08842755,0.0001375,53.215,171.0959,99.7386,260.3762,0.00017648,2.522e-05,0.0,0 STARLINK-3391,1 51117U 22005P   23308.83314893  .00002522  00000-0  17648-3 0  9999,2 51117  53.2150 171.0959 0001375  99.7386 260.3762 15.08842755100780,6917.872,95.437,540.688,538.786,0.0
51117.0,STARLINK-3391,PAYLOAD,2023-11-04 21:35:07,15.08845166,0.0001367,53.2151,170.7985,100.9155,259.1991,0.0002054,2.983e-05,0.0,0 STARLINK-3391,1 51117U 22005P   23308.89938791  .00002983  00000-0  20540-3 0  9990,2 51117  53.2151 170.7985 0001367 100.9155 259.1991 15.08845166 99681,6917.865,95.437,540.675,538.784,0.0
51117.0,STARLINK-3391,PAYLOAD,2023-11-05 21:25:53,15.08879732,0.0001447,53.2154,166.339,99.5642,260.5514,0.0012725,0.00020044,0.0,0 STARLINK-3391,1 51117U 22005P   23309.89297774  .00020044  00000-0  12725-2 0  9993,2 51117  53.2154 166.3390 0001447  99.5642 260.5514 15.08879732 99838,6917.759,95.435,540.625,538.623,0.0
51117.0,STARLINK-3391,PAYLOAD,2023-11-06 00:36:39,15.08892813,0.0001472,53.2157,165.7434,98.7734,261.3425,0.0017968,0.00028465,0.0,0 STARLINK-3391,1 51117U 22005P   23310.02545382  .00028465  00000-0  17968-2 0  9990,2 51117  53.2157 165.7434 0001472  98.7734 261.3425 15.08892813100966,6917.719,95.434,540.602,538.566,0.0
51117.0,STARLINK-3391,PAYLOAD,2023-11-06 06:58:11,15.08878708,0.000145,53.2163,164.5533,101.7446,258.3709,0.0011561,0.00018179,0.0,0 STARLINK-3391,1 51117U 22005P   23310.29041128  .00018179  00000-0  11561-2 0  9992,2 51117  53.2163 164.5533 0001450 101.7446 258.3709 15.08878708101005,6917.762,95.435,540.63,538.624,0.0
51117.0,STARLINK-3391,PAYLOAD,2023-11-06 19:41:16,15.08850616,0.0001714,53.2172,162.1791,113.0328,247.0845,6.3993e-05,7.31e-06,0.0,0 STARLINK-3391,1 51117U 22005P   23310.82033136  .00000731  00000-0  63993-4 0  9994,2 51117  53.2172 162.1791 0001714 113.0328 247.0845 15.08850616101085,6917.848,95.437,540.899,538.527,0.0
51117.0,STARLINK-3391,PAYLOAD,2023-11-06 21:16:39,15.08855271,0.0001322,53.2157,161.8773,84.1019,276.0123,0.00013845,1.917e-05,0.0,0 STARLINK-3391,1 51117U 22005P   23310.88657174  .00001917  00000-0  13845-3 0  9991,2 51117  53.2157 161.8773 0001322  84.1019 276.0123 15.08855271 99982,6917.834,95.437,540.613,538.784,0.0
51117.0,STARLINK-3391,PAYLOAD,2023-11-07 06:48:59,15.0883081,0.0002355,53.2162,160.0927,95.5974,264.5286,-0.00013736,-2.473e-05,0.0,0 STARLINK-3391,1 51117U 22005P   23311.28401941 -.00002473  00000-0 -13736-3 0  9994,2 51117  53.2162 160.0927 0002355  95.5974 264.5286 15.08830810101150,6917.908,95.438,541.403,538.144,0.0
51117.0,STARLINK-3391,PAYLOAD,2023-11-07 13:10:30,15.08854992,0.0001196,53.2153,158.903,61.8066,298.3047,0.00074706,0.00011626,0.0,0 STARLINK-3391,1 51117U 22005P   23311.54896917  .00011626  00000-0  74706-3 0  9996,2 51117  53.2153 158.9030 0001196  61.8066 298.3047 15.08854992100089,6917.835,95.437,540.527,538.872,0.0
51117.0,STARLINK-3391,PAYLOAD,2023-11-07 19:32:03,15.08825231,0.000168,53.2155,157.7134,103.5483,256.5696,-0.0010153,-0.00016404,0.0,0 STARLINK-3391,1 51117U 22005P   23311.81392500 -.00016404  00000-0 -10153-2 0  9991,2 51117  53.2155 157.7134 0001680 103.5483 256.5696 15.08825231101236,6917.926,95.438,540.953,538.628,0.0
51117.0,STARLINK-3391,PAYLOAD,2023-11-07 21:07:27,15.0882129,0.0001375,53.216,157.417,113.632,246.4817,-0.00084773,-0.00013747,0.0,0 STARLINK-3391,1 51117U 22005P   23311.88017531 -.00013747  00000-0 -84773-3 0  9993,2 51117  53.2160 157.4170 0001375 113.6320 246.4817 15.08821290101247,6917.938,95.439,540.754,538.851,0.0
51117.0,STARLINK-3391,PAYLOAD,2023-11-08 19:22:52,15.08824741,0.0001457,53.2156,153.2536,95.3987,264.7171,0.00019539,2.822e-05,0.0,0 STARLINK-3391,1 51117U 22005P   23312.80755024  .00002822  00000-0  19539-3 0  9990,2 51117  53.2156 153.2536 0001457  95.3987 264.7171 15.08824741101383,6917.927,95.439,540.8,538.784,0.0
51117.0,STARLINK-3391,PAYLOAD,2023-11-08 20:58:15,15.08821417,0.0001487,53.2155,152.9563,86.0,274.1162,0.00016525,2.342e-05,0.0,0 STARLINK-3391,1 51117U 22005P   23312.87379182  .00002342  00000-0  16525-3 0  9993,2 51117  53.2155 152.9563 0001487  86.0000 274.1162 15.08821417100284,6917.937,95.439,540.831,538.773,0.0
51117.0,STARLINK-3391,PAYLOAD,2023-11-09 12:52:07,15.08831199,0.0001284,53.2153,149.9831,92.796,267.318,0.00057817,8.923e-05,0.0,0 STARLINK-3391,1 51117U 22005P   23313.53619738  .00008923  00000-0  57817-3 0  9991,2 51117  53.2153 149.9831 0001284  92.7960 267.3180 15.08831199100383,6917.907,95.438,540.661,538.884,0.0
51117.0,STARLINK-3391,PAYLOAD,2023-11-09 20:49:03,15.08844904,0.0001319,53.2149,148.4962,92.2719,267.8424,0.00075338,0.00011724,0.0,0 STARLINK-3391,1 51117U 22005P   23313.86739603  .00011724  00000-0  75338-3 0  9992,2 51117  53.2149 148.4962 0001319  92.2719 267.8424 15.08844904100433,6917.865,95.437,540.643,538.818,0.0
51117.0,STARLINK-3391,PAYLOAD,2023-11-10 06:21:21,15.08846512,0.0001334,53.215,146.7116,92.8808,267.2337,0.00046881,7.182e-05,0.0,0 STARLINK-3391,1 51117U 22005P   23314.26483602  .00007182  00000-0  46881-3 0  9996,2 51117  53.2150 146.7116 0001334  92.8808 267.2337 15.08846512101603,6917.86,95.437,540.648,538.803,0.0
51117.0,STARLINK-3391,PAYLOAD,2023-11-10 19:04:26,15.08846466,0.0001359,53.2146,144.3327,89.225,270.8898,0.00035485,5.365e-05,0.0,0 STARLINK-3391,1 51117U 22005P   23314.79475543  .00005365  00000-0  35485-3 0  9998,2 51117  53.2146 144.3327 0001359  89.2250 270.8898 15.08846466100579,6917.861,95.437,540.666,538.785,0.0
51117.0,STARLINK-3391,PAYLOAD,2023-11-11 12:33:41,15.08843491,0.0001354,53.2139,141.061,88.5944,271.5203,0.00018601,2.674e-05,0.0,0 STARLINK-3391,1 51117U 22005P   23315.52339520  .00002674  00000-0  18601-3 0  9995,2 51117  53.2139 141.0610 0001354  88.5944 271.5203 15.08843491101795,6917.87,95.437,540.671,538.798,0.0
51117.0,STARLINK-3391,PAYLOAD,2023-11-11 17:19:50,15.08845151,0.000135,53.2144,140.1688,88.8457,271.269,0.00016127,2.28e-05,0.0,0 STARLINK-3391,1 51117U 22005P   23315.72211468  .00002280  00000-0  16127-3 0  9991,2 51117  53.2144 140.1688 0001350  88.8457 271.2690 15.08845151100717,6917.865,95.437,540.664,538.796,0.0
51117.0,STARLINK-3391,PAYLOAD,2023-11-12 12:24:28,15.08842751,0.0001343,53.2145,136.6009,86.8523,273.2623,0.00011555,1.552e-05,0.0,0 STARLINK-3391,1 51117U 22005P   23316.51699583  .00001552  00000-0  11555-3 0  9998,2 51117  53.2145 136.6009 0001343  86.8523 273.2623 15.08842751100833,6917.872,95.437,540.666,538.808,0.0
51117.0,STARLINK-3391,PAYLOAD,2023-11-12 17:10:37,15.08842711,0.0001343,53.215,135.7088,86.8989,273.2156,0.00010166,1.33e-05,0.0,0 STARLINK-3391,1 51117U 22005P   23316.71571544  .00001330  00000-0  10166-3 0  9997,2 51117  53.2150 135.7088 0001343  86.8989 273.2156 15.08842711101975,6917.872,95.437,540.666,538.808,0.0
